LEMUR-1                 
1 40044U 14033AL  26161.22000796  .00002127  00000+0  24896-3 0  9998
2 40044  97.7867 311.1809 0049756 100.8769 259.8051 14.85218903644435
LEMUR-2-GREENBERG       
1 42837U 17042N   26161.22534190  .00015632  00000+0  52147-3 0  9998
2 42837  97.3821 341.8840 0009199  38.0436 322.1453 15.31115485487324
LEMUR-2-ANDIS           
1 42838U 17042P   26160.74878637  .00021256  00000+0  63563-3 0  9995
2 42838  97.3682 341.5686 0008771  38.8690 321.3182 15.34551135487318
LEMUR-2-MONSON          
1 42839U 17042Q   26161.21907633  .00013029  00000+0  48152-3 0  9994
2 42839  97.4080 341.8605 0006902  30.4739 329.6900 15.27828621487107
LEMUR-2-FURIAUS         
1 42840U 17042R   26160.95260260  .00017238  00000+0  59459-3 0  9992
2 42840  97.3772 339.5843 0008510  91.1210 269.1005 15.30015729487104
LEMUR-2-PETERG          
1 42841U 17042S   26161.25028109  .00020948  00000+0  64576-3 0  9999
2 42841  97.3992 346.2718 0003819  23.6567 336.4850 15.33619587487377
LEMUR-2-DEMBITZ         
1 42842U 17042T   26161.23431761  .00015199  00000+0  52374-3 0  9995
2 42842  97.3824 342.8822 0007333  51.5243 308.6654 15.30084230487287
LEMUR-2-ZACHARY         
1 42845U 17042W   26161.28216661  .00043885  00000+0  79057-3 0  9993
2 42845  97.3610 352.7756 0003394  58.0725 302.0856 15.49668523488139
LEMUR-2-AMANDA-SVANTE   
1 48269U 21034B   26161.18254015  .00029956  00000+0  91413-3 0  9992
2 48269  97.5763 239.2860 0001482 235.0140 125.0964 15.33876521279981
LEMUR-2-SPECIAL-K       
1 48273U 21034F   26160.98111868  .00145639  00000+0  16157-2 0  9990
2 48273  97.5652 247.3281 0003448 232.2921 127.8024 15.62456348280566
LEMUR-2-EMBRIONOVIS     
1 56970U 23084AQ  26160.91229631  .00012846  00000+0  35254-3 0  9994
2 56970  97.6278 304.8344 0008229 348.7034  11.4024 15.37368895166565
LEMUR-2-DEVERILL-M-T    
1 57391U 23100F   26160.82566060  .00026890  00000+0  68821-3 0  9991
2 57391  99.4479 197.4603 0007037  73.2264 286.9746 15.39391302160117
LEMUR-2-BASS            
1 58259U 23174D   26161.20626274  .00016150  00000+0  36951-3 0  9990
2 58259  97.3847 245.8226 0007203 184.9650 175.1528 15.42863047144281
LEMUR-2-JK0903EM1407    
1 58336U 23174CJ  26161.17819903  .00025841  00000+0  44064-3 0  9996
2 58336  97.3913 251.4542 0005938 139.2403 220.9294 15.51320696144644
LEMUR-2-MJR092620       
1 58340U 23174CN  26160.96842874  .00019043  00000+0  41040-3 0  9998
2 58340  97.3970 250.8662 0007086 138.8890 221.2893 15.44610335144530
LEMUR-2-NIMBUS2000      
1 58899U 24022A   26161.06073092  .00016888  00000+0  42751-3 0  9994
2 58899  97.4121  10.9742 0010060 137.8081 222.3941 15.39769033131175
LEMUR-2-VALHALLA        
1 58900U 24022B   26161.12047860  .00015904  00000+0  40680-3 0  9995
2 58900  97.4119  11.0291 0010628 133.8396 226.3730 15.39458729131189
LEMUR-2-OBA-NI-JESU     
1 58902U 24022D   26161.12386512  .01635442  22666-2  13556-2 0  9999
2 58902  97.3669  25.8964 0004951 208.7470 151.3544 16.14501719132191
LEMUR-2-CAEL            
1 58903U 24022E   26161.13623971  .00017193  00000+0  42157-3 0  9995
2 58903  97.4104  11.9684 0009194 118.2055 242.0121 15.40745564131251
LEMUR-2-JOHNNYTRUONG    
1 59146U 24043BA  26161.15920607  .00039087  00000+0  48461-3 0  9996
2 59146  97.5369 312.4307 0004616 197.4130 162.6969 15.59943500126940
LEMUR-2-TOMATOKECHUP    
1 60471U 24149D   26161.20164126  .00009591  00000+0  27691-3 0  9997
2 60471  97.3797 243.2313 0000742 194.7677 165.3545 15.35884698101091
LEMUR-2-STELLA          
1 60533U 24149BT  26161.19793112  .00009903  00000+0  58580-3 0  9995
2 60533  97.6731 243.6231 0001747 100.0450 260.0977 15.11656072 99443
LEMUR-2-MARHISYAM       
1 60536U 24149BW  26161.17573142  .00010825  00000+0  64947-3 0  9994
2 60536  97.6878 244.0427 0003105 131.2323 228.9174 15.11117157 99421
LEMUR-2-AHMED-ASRAR     
1 60576U 24149DN  26160.95194958  .00011277  00000+0  65009-3 0  9999
2 60576  97.7001 245.8829 0002536  61.3010 298.8475 15.12550560 99477
LEMUR-2-LLOYD           
1 60577U 24149DP  26161.14675059  .00009440  00000+0  59902-3 0  9992
2 60577  97.6748 242.2727 0004638 155.3221 204.8231 15.09104559 99337
LEMUR-2-SQUIRRELCOMM    
1 60578U 24149DQ  26160.95212938  .00005615  00000+0  37821-3 0  9990
2 60578  97.6714 241.8867 0006994  82.1692 278.0330 15.07072717 99316
LEMUR-2-SIERRINI        
1 60579U 24149DR  26161.19778638  .00009619  00000+0  58265-3 0  9995
2 60579  97.6834 243.7599 0005282 186.3384 173.7779 15.10796886 99409
LEMUR-2-WILSON          
1 62694U 25009CP  26161.13485980  .00001607  00000+0  15168-3 0  9994
2 62694  97.7022 239.7234 0004441  71.8589 288.3115 14.95134980 76305
LEMUR-2-STAR-FOX        
1 62696U 25009CR  26160.96663948  .00007910  00000+0  60153-3 0  9995
2 62696  97.6948 242.6277 0003078 130.7353 229.4140 15.02396930 76478
